     2              NAVIGATION DATA                         RINEX VERSION / TYPE
CCRINEXN V1.6.0 UX  CDDIS               05-JAN-22 03:31     PGM / RUN BY / DATE 
IGS BROADCAST EPHEMERIS FILE                                COMMENT             
    0.1118D-07 -0.7451D-08 -0.5960D-07  0.1192D-06          ION ALPHA           
    0.1167D+06 -0.2294D+06 -0.1311D+06  0.1049D+07          ION BETA            
    0.000000000000D+00 0.000000000000D+00   319488     2191 DELTA-UTC: A0,A1,T,W
    18                                                      LEAP SECONDS        
                                                            END OF HEADER       
30 22  1  4  0  0  0.0-0.504220370203D-03-0.272848410532D-11 0.000000000000D+00
    0.540000000000D+02-0.856250000000D+01 0.558023243908D-08-0.116947278272D+01
   -0.506639480591D-06 0.538577500265D-02 0.489689409733D-05 0.515358265877D+04
    0.172800000000D+06 0.111758708954D-06 0.199057767505D+01-0.484287738800D-07
    0.935777661410D+00 0.268000000000D+03-0.275404558462D+01-0.840642158977D-08
   -0.789318592573D-10 0.100000000000D+01 0.219100000000D+04 0.000000000000D+00
    0.200000000000D+01 0.000000000000D+00 0.372529029846D-08 0.540000000000D+02
    0.166038000000D+06 0.400000000000D+01 0.000000000000D+00 0.000000000000D+00
31 22  1  4  0  0  0.0-0.158243812621D-03-0.181898940355D-11 0.000000000000D+00
    0.210000000000D+02-0.113125000000D+02 0.518878756240D-08-0.162565307324D+01
   -0.858679413795D-06 0.104656964541D-01 0.481121242046D-05 0.515365639305D+04
    0.172800000000D+06 0.111758708954D-06 0.199470725140D+01-0.838190317154D-07
    0.954852297682D+00 0.278531250000D+03 0.362196575581D+00-0.824284334751D-08
    0.578595529398D-10 0.100000000000D+01 0.219100000000D+04 0.000000000000D+00
    0.200000000000D+01 0.000000000000D+00-0.130385160446D-07 0.210000000000D+02
    0.165618000000D+06 0.400000000000D+01 0.000000000000D+00 0.000000000000D+00
32 22  1  4  0  0  0.0-0.449758954346D-04-0.579802872380D-11 0.000000000000D+00
    0.960000000000D+02-0.890625000000D+01 0.437732519031D-08 0.240618452073D+01
   -0.342726707459D-06 0.537269166671D-02 0.101067125797D-04 0.515376121139D+04
    0.172800000000D+06-0.409781932831D-07 0.915429432065D+00-0.175088644028D-06
    0.957700921025D+00 0.181718750000D+03-0.238064410693D+01-0.775210862073D-08
    0.788604277105D-09 0.100000000000D+01 0.219100000000D+04 0.000000000000D+00
    0.280000000000D+01 0.000000000000D+00 0.465661287308D-09 0.960000000000D+02
    0.165618000000D+06 0.400000000000D+01 0.000000000000D+00 0.000000000000D+00
12 22  1  4  1 59 44.0-0.150603707880D-03-0.568434188608D-11 0.000000000000D+00
    0.220000000000D+02 0.554062500000D+02 0.418624580251D-08-0.793491898111D+00
    0.295601785183D-05 0.852129620034D-02 0.117328017950D-04 0.515362882233D+04
    0.179984000000D+06-0.577419996262D-07 0.308887212888D+01 0.875443220139D-07
    0.971259703677D+00 0.164687500000D+03 0.123260977423D+01-0.772067874012D-08
   -0.583952895411D-09 0.100000000000D+01 0.219100000000D+04 0.000000000000D+00
    0.200000000000D+01 0.000000000000D+00-0.125728547573D-07 0.220000000000D+02
    0.179827000000D+06 0.400000000000D+01 0.000000000000D+00 0.000000000000D+00
16 22  1  4  1 59 44.0-0.450490508228D-03-0.557065504836D-11 0.000000000000D+00
    0.500000000000D+01 0.394375000000D+02 0.408481300600D-08-0.265211468864D+01
    0.176765024662D-05 0.125879843254D-01 0.122301280498D-04 0.515358582878D+04
    0.179984000000D+06 0.260770320892D-07 0.310750295677D+01-0.199303030968D-06
    0.971234654130D+00 0.148812500000D+03 0.691855560687D+00-0.747245411485D-08
   -0.472876840076D-09 0.100000000000D+01 0.219100000000D+04 0.000000000000D+00
    0.200000000000D+01 0.000000000000D+00-0.102445483208D-07 0.500000000000D+01
    0.176796000000D+06 0.400000000000D+01 0.000000000000D+00 0.000000000000D+00
19 22  1  4  1 59 44.0 0.100938137621D-03 0.500222085975D-11 0.000000000000D+00
    0.190000000000D+02 0.157437500000D+03 0.412088593715D-08-0.114529762405D+01
    0.830739736557D-05 0.892898789607D-02 0.546872615814D-05 0.515367881203D+04
    0.179984000000D+06-0.132247805595D-06-0.211247783730D+01 0.149011611938D-07
    0.978956406812D+00 0.287375000000D+03 0.199182107495D+01-0.808319384033D-08
    0.292155026572D-09 0.100000000000D+01 0.219100000000D+04 0.000000000000D+00
    0.200000000000D+01 0.000000000000D+00-0.158324837685D-07 0.190000000000D+02
    0.179016000000D+06 0.400000000000D+01 0.000000000000D+00 0.000000000000D+00
21 22  1  4  1 59 44.0 0.155334826559D-03 0.909494701773D-12 0.000000000000D+00
    0.320000000000D+02 0.131250000000D+01 0.480055710533D-08 0.289458759492D+01
    0.171363353729D-06 0.244605415501D-01-0.192224979401D-05 0.515360575294D+04
    0.179984000000D+06 0.365078449249D-06-0.124899632925D+01 0.413507223129D-06
    0.958929968242D+00 0.412656250000D+03-0.103343555508D+01-0.830356016233D-08
   -0.101432796512D-09 0.100000000000D+01 0.219100000000D+04 0.000000000000D+00
    0.200000000000D+01 0.000000000000D+00-0.102445483208D-07 0.320000000000D+02
    0.173256000000D+06 0.400000000000D+01 0.000000000000D+00 0.000000000000D+00
25 22  1  4  1 59 44.0 0.265701208264D-03 0.568434188608D-11 0.000000000000D+00
    0.110000000000D+02 0.345000000000D+02 0.453340312015D-08-0.101638970969D+01
    0.191666185856D-05 0.102995939087D-01 0.112801790237D-04 0.515372856140D+04
    0.179984000000D+06 0.117346644402D-06 0.301271443647D+01 0.165775418282D-06
    0.958643211429D+00 0.162718750000D+03 0.967102099273D+00-0.784604110482D-08
   -0.643241079287D-09 0.100000000000D+01 0.219100000000D+04 0.000000000000D+00
    0.200000000000D+01 0.000000000000D+00 0.558793544769D-08 0.110000000000D+02
    0.173808000000D+06 0.400000000000D+01 0.000000000000D+00 0.000000000000D+00
26 22  1  4  1 59 44.0 0.171178020537D-03 0.341060513165D-11 0.000000000000D+00
    0.120000000000D+02 0.122187500000D+02 0.492163357722D-08-0.166340420824D+01
    0.391155481339D-06 0.673375173938D-02 0.107977539301D-04 0.515367747116D+04
    0.179984000000D+06-0.149011611938D-07 0.296654527878D+01-0.121071934700D-06
    0.939469528288D+00 0.157875000000D+03 0.338732873469D+00-0.799104714490D-08
   -0.550022910662D-09 0.100000000000D+01 0.219100000000D+04 0.000000000000D+00
    0.200000000000D+01 0.000000000000D+00 0.698491930962D-08 0.120000000000D+02
    0.172818000000D+06 0.400000000000D+01 0.000000000000D+00 0.000000000000D+00
29 22  1  4  1 59 44.0-0.462746247649D-03-0.500222085975D-11 0.000000000000D+00
    0.600000000000D+01 0.173781250000D+03 0.403552523868D-08 0.286285788632D+01
    0.904314219952D-05 0.175520556513D-02 0.643357634544D-05 0.515377520371D+04
    0.179984000000D+06 0.428408384323D-07-0.214449121887D+01 0.372529029846D-07
    0.982245887832D+00 0.268187500000D+03 0.230215186205D+01-0.792925885689D-08
    0.283226083218D-09 0.100000000000D+01 0.219100000000D+04 0.000000000000D+00
    0.200000000000D+01 0.000000000000D+00-0.102445483208D-07 0.600000000000D+01
    0.178536000000D+06 0.400000000000D+01 0.000000000000D+00 0.000000000000D+00
32 22  1  4  1 59 44.0-0.450173392892D-04-0.579802872380D-11 0.000000000000D+00
    0.120000000000D+02-0.214062500000D+02 0.433982362822D-08-0.282914941864D+01
   -0.106543302536D-05 0.537453428842D-02 0.104270875454D-04 0.515375769806D+04
    0.179984000000D+06 0.316649675369D-07 0.915374578488D+00-0.540167093277D-07
    0.957706894119D+00 0.176750000000D+03-0.238070217014D+01-0.763817530352D-08
    0.753602819154D-09 0.100000000000D+01 0.219100000000D+04 0.000000000000D+00
    0.200000000000D+01 0.000000000000D+00 0.465661287308D-09 0.120000000000D+02
    0.172818000000D+06 0.400000000000D+01 0.000000000000D+00 0.000000000000D+00
 1 22  1  4  2  0  0.0 0.466472003609D-03-0.100044417195D-10 0.000000000000D+00
    0.740000000000D+02-0.224687500000D+02 0.425910598029D-08 0.532754702458D+00
   -0.104121863842D-05 0.112248224905D-01-0.156462192535D-06 0.515367457581D+04
    0.180000000000D+06-0.372529029846D-07-0.115921200698D+01 0.111758708954D-06
    0.986355303715D+00 0.393031250000D+03 0.884515515347D+00-0.848571060677D-08
   -0.219652006531D-09 0.100000000000D+01 0.219100000000D+04 0.000000000000D+00
    0.200000000000D+01 0.000000000000D+00 0.512227416039D-08 0.740000000000D+02
    0.172818000000D+06 0.400000000000D+01 0.000000000000D+00 0.000000000000D+00
 2 22  1  4  2  0  0.0-0.647680368274D-03-0.102318153950D-11 0.000000000000D+00
    0.830000000000D+02-0.668750000000D+01 0.492520515456D-08 0.702645457809D+00
   -0.614672899246D-06 0.206547479611D-01-0.426545739174D-06 0.515366463280D+04
    0.180000000000D+06-0.290572643280D-06-0.124763899875D+01-0.199303030968D-06
    0.964692485943D+00 0.396312500000D+03-0.146292627892D+01-0.900751805642D-08
   -0.159292349451D-09 0.100000000000D+01 0.219100000000D+04 0.000000000000D+00
    0.200000000000D+01 0.000000000000D+00-0.176951289177D-07 0.830000000000D+02
    0.172818000000D+06 0.400000000000D+01 0.000000000000D+00 0.000000000000D+00
 3 22  1  4  2  0  0.0-0.648619607091D-04-0.140971678775D-10 0.000000000000D+00
    0.430000000000D+02-0.144968750000D+03 0.398016578988D-08-0.639048456099D+00
   -0.766664743424D-05 0.384731648956D-02 0.855326652527D-05 0.515371586990D+04
    0.180000000000D+06-0.372529029846D-07-0.123768358375D+00 0.689178705216D-07
    0.972468574328D+00 0.220468750000D+03 0.985062818517D+00-0.787961393183D-08
   -0.164292557730D-09 0.100000000000D+01 0.219100000000D+04 0.000000000000D+00
    0.200000000000D+01 0.000000000000D+00 0.186264514923D-08 0.430000000000D+02
    0.172818000000D+06 0.400000000000D+01 0.000000000000D+00 0.000000000000D+00
